[{"name":"Vienna","pinyin":"nanzidao","zip":"101310230"},
{"name":"Tirana","pinyin":"nanzidao","zip":"101310230"},
{"name":"Dublin","pinyin":"nanzidao","zip":"101310230"},
{"name":"Tallinn","pinyin":"nanzidao","zip":"101310230"},
{"name":"Minsk","pinyin":"nanzidao","zip":"101310230"},
{"name":"Sofia","pinyin":"nanzidao","zip":"101310230"},
{"name":"Warsaw","pinyin":"nanzidao","zip":"101310230"},
{"name":"Sarajevo","pinyin":"nanzidao","zip":"101310230"},
{"name":"Brussels","pinyin":"nanzidao","zip":"101310230"},
{"name":"Berlin","pinyin":"nanzidao","zip":"101310230"},
{"name":"Copenhagen","pinyin":"nanzidao","zip":"101310230"},
{"name":"Moscow","pinyin":"nanzidao","zip":"101310230"},
{"name":"Paris","pinyin":"nanzidao","zip":"101310230"},
{"name":"Helsinki","pinyin":"nanzidao","zip":"101310230"},
{"name":"Amsterdam","pinyin":"nanzidao","zip":"101310230"},
{"name":"Prague","pinyin":"nanzidao","zip":"101310230"},
{"name":"Zagreb","pinyin":"nanzidao","zip":"101310230"},
{"name":"Riga","pinyin":"nanzidao","zip":"101310230"},
{"name":"Vilnius","pinyin":"nanzidao","zip":"101310230"},
{"name":"Vaduz","pinyin":"nanzidao","zip":"101310230"},
{"name":"Bucharest","pinyin":"nanzidao","zip":"101310230"},
{"name":"Skopje","pinyin":"nanzidao","zip":"101310230"},
{"name":"Luxembourg_City","pinyin":"nanzidao","zip":"101310230"},
{"name":"Chisinau","pinyin":"nanzidao","zip":"101310230"},
{"name":"Oslo","pinyin":"nanzidao","zip":"101310230"},
{"name":"Lisbon","pinyin":"nanzidao","zip":"101310230"},
{"name":"Stockholm","pinyin":"nanzidao","zip":"101310230"},
{"name":"Bern","pinyin":"nanzidao","zip":"101310230"},
{"name":"Bratislava","pinyin":"nanzidao","zip":"101310230"},
{"name":"Ljubljana","pinyin":"nanzidao","zip":"101310230"},
{"name":"San_Marino_City","pinyin":"nanzidao","zip":"101310230"},
{"name":"Kiev","pinyin":"nanzidao","zip":"101310230"},
{"name":"Madrid","pinyin":"nanzidao","zip":"101310230"},
{"name":"Athens","pinyin":"nanzidao","zip":"101310230"},
{"name":"Budapest","pinyin":"nanzidao","zip":"101310230"},
{"name":"Rome","pinyin":"nanzidao","zip":"101310230"},
{"name":"London","pinyin":"nanzidao","zip":"101310230"},
{"name":"Kabul","pinyin":"nanzidao","zip":"101310230"},
{"name":"Abu_Dhabi","pinyin":"nanzidao","zip":"101310230"},
{"name":"Muscat","pinyin":"nanzidao","zip":"101310230"},
{"name":"Baku","pinyin":"nanzidao","zip":"101310230"},
{"name":"Islamabad","pinyin":"nanzidao","zip":"101310230"},
{"name":"Jerusalem","pinyin":"nanzidao","zip":"101310230"},
{"name":"Manama","pinyin":"nanzidao","zip":"101310230"},
{"name":"Thimphu","pinyin":"nanzidao","zip":"101310230"},
{"name":"Pyongyang","pinyin":"nanzidao","zip":"101310230"},
{"name":"Dili","pinyin":"nanzidao","zip":"101310230"},
{"name":"Manila","pinyin":"nanzidao","zip":"101310230"},
{"name":"Tbilisi","pinyin":"nanzidao","zip":"101310230"},
{"name":"Astana","pinyin":"nanzidao","zip":"101310230"},
{"name":"seoul","pinyin":"nanzidao","zip":"101310230"},
{"name":"Bishkek","pinyin":"nanzidao","zip":"101310230"},
{"name":"Phnom_Penh","pinyin":"nanzidao","zip":"101310230"},
{"name":"Doha","pinyin":"nanzidao","zip":"101310230"},
{"name":"Vientiane","pinyin":"nanzidao","zip":"101310230"},
{"name":"Beirut","pinyin":"nanzidao","zip":"101310230"},
{"name":"Male","pinyin":"nanzidao","zip":"101310230"},
{"name":"Kuala_Lumpur","pinyin":"nanzidao","zip":"101310230"},
{"name":"Ulan_Bator","pinyin":"nanzidao","zip":"101310230"},
{"name":"Dhaka","pinyin":"nanzidao","zip":"101310230"},
{"name":"Yangon","pinyin":"nanzidao","zip":"101310230"},
{"name":"Kathmandu","pinyin":"nanzidao","zip":"101310230"},
{"name":"Tokyo","pinyin":"nanzidao","zip":"101310230"},
{"name":"Nicosia","pinyin":"nanzidao","zip":"101310230"},
{"name":"Riyadh","pinyin":"nanzidao","zip":"101310230"},
{"name":"Colombo","pinyin":"nanzidao","zip":"101310230"},
{"name":" Dushanbe","pinyin":"nanzidao","zip":"101310230"},
{"name":"Bangkok","pinyin":"nanzidao","zip":"101310230"},
{"name":"Ankara","pinyin":"nanzidao","zip":"101310230"},
{"name":"Ashgabat","pinyin":"nanzidao","zip":"101310230"},
{"name":"Bandar_Seri_Begawan","pinyin":"nanzidao","zip":"101310230"},
{"name":"Tashkent","pinyin":"nanzidao","zip":"101310230"},
{"name":"Singapore_City","pinyin":"nanzidao","zip":"101310230"},
{"name":"Damascus","pinyin":"nanzidao","zip":"101310230"},
{"name":"Yerevan","pinyin":"nanzidao","zip":"101310230"},
{"name":"Sanaa","pinyin":"nanzidao","zip":"101310230"},
{"name":"Tehran","pinyin":"nanzidao","zip":"101310230"},
{"name":"Baghdad","pinyin":"nanzidao","zip":"101310230"},
{"name":"Jerusalem","pinyin":"nanzidao","zip":"101310230"},
{"name":"New_Delhi","pinyin":"nanzidao","zip":"101310230"},
{"name":"Jakarta","pinyin":"nanzidao","zip":"101310230"},
{"name":"Amman","pinyin":"nanzidao","zip":"101310230"},
{"name":"Hanoi","pinyin":"nanzidao","zip":"101310230"},
{"name":"Buenos_Aires","pinyin":"nanzidao","zip":"101310230"},
{"name":"Bridgetown","pinyin":"nanzidao","zip":"101310230"},
{"name":"Sucre","pinyin":"nanzidao","zip":"101310230"},
{"name":"Santiago","pinyin":"nanzidao","zip":"101310230"},
{"name":"Roseau","pinyin":"nanzidao","zip":"101310230"},
{"name":"Quito","pinyin":"nanzidao","zip":"101310230"},
{"name":"Havana","pinyin":"nanzidao","zip":"101310230"},
{"name":"Bogota","pinyin":"nanzidao","zip":"101310230"},
{"name":"Ottawa","pinyin":"nanzidao","zip":"101310230"},
{"name":"Lima","pinyin":"nanzidao","zip":"101310230"},
{"name":"Mexico_City","pinyin":"nanzidao","zip":"101310230"},
{"name":"Paramaribo","pinyin":"nanzidao","zip":"101310230"},
{"name":"Castries","pinyin":"nanzidao","zip":"101310230"},
{"name":"Port-of-Spain","pinyin":"nanzidao","zip":"101310230"},
{"name":"Montevideo","pinyin":"nanzidao","zip":"101310230"},
{"name":"Caracas","pinyin":"nanzidao","zip":"101310230"},
{"name":"Kingston","pinyin":"nanzidao","zip":"101310230"},
{"name":"Santiago","pinyin":"nanzidao","zip":"101310230"},
{"name":"Nassau","pinyin":"nanzidao","zip":"101310230"},
{"name":"Algiers","pinyin":"nanzidao","zip":"101310230"},
{"name":"Cairo","pinyin":"nanzidao","zip":"101310230"},
{"name":"Addis_Ababa","pinyin":"nanzidao","zip":"101310230"},
{"name":"Luanda","pinyin":"nanzidao","zip":"101310230"},
{"name":"Porto-Novo","pinyin":"nanzidao","zip":"101310230"},
{"name":"Gaborone","pinyin":"nanzidao","zip":"101310230"},
{"name":"Ouagadougou","pinyin":"nanzidao","zip":"101310230"},
{"name":"Bujumbura","pinyin":"nanzidao","zip":"101310230"},
{"name":"Malabo","pinyin":"nanzidao","zip":"101310230"},
{"name":"Lome","pinyin":"nanzidao","zip":"101310230"},
{"name":"Asmara","pinyin":"nanzidao","zip":"101310230"},
{"name":"Praia","pinyin":"nanzidao","zip":"101310230"},
{"name":"Banjul","pinyin":"nanzidao","zip":"101310230"},
{"name":"Brazzaville","pinyin":"nanzidao","zip":"101310230"},
{"name":"Kinshasa","pinyin":"nanzidao","zip":"101310230"},
{"name":"Djibouti_City","pinyin":"nanzidao","zip":"101310230"},
{"name":"Conakry","pinyin":"nanzidao","zip":"101310230"},
{"name":"Bissau","pinyin":"nanzidao","zip":"101310230"},
{"name":"Libreville","pinyin":"nanzidao","zip":"101310230"},
{"name":"Accra","pinyin":"nanzidao","zip":"101310230"},
{"name":"Harare","pinyin":"nanzidao","zip":"101310230"},
{"name":"Yaounde","pinyin":"nanzidao","zip":"101310230"},
{"name":"Moroni","pinyin":"nanzidao","zip":"101310230"},
{"name":"Yamoussoukro","pinyin":"nanzidao","zip":"101310230"},
{"name":"Nairobi","pinyin":"nanzidao","zip":"101310230"},
{"name":"Maseru","pinyin":"nanzidao","zip":"101310230"},
{"name":"Monrovia","pinyin":"nanzidao","zip":"101310230"},
{"name":"Tripoli","pinyin":"nanzidao","zip":"101310230"},
{"name":"Kigali","pinyin":"nanzidao","zip":"101310230"},
{"name":"Antananarivo","pinyin":"nanzidao","zip":"101310230"},
{"name":"Bamako","pinyin":"nanzidao","zip":"101310230"},
{"name":"Nouakchott","pinyin":"nanzidao","zip":"101310230"},
{"name":"Rabat","pinyin":"nanzidao","zip":"101310230"},
{"name":"Maputo","pinyin":"nanzidao","zip":"101310230"},
{"name":"Windhoek","pinyin":"nanzidao","zip":"101310230"},
{"name":"Cape_Town","pinyin":"nanzidao","zip":"101310230"},
{"name":"Niamey","pinyin":"nanzidao","zip":"101310230"},
{"name":"Abuja","pinyin":"nanzidao","zip":"101310230"},
{"name":"Freetown","pinyin":"nanzidao","zip":"101310230"},
{"name":"Dakar","pinyin":"nanzidao","zip":"101310230"},
{"name":"Sao_Tome","pinyin":"nanzidao","zip":"101310230"},
{"name":"Khartoum","pinyin":"nanzidao","zip":"101310230"},
{"name":"Mogadishu","pinyin":"nanzidao","zip":"101310230"},
{"name":"Dodoma","pinyin":"nanzidao","zip":"101310230"},
{"name":"Tunis","pinyin":"nanzidao","zip":"101310230"},
{"name":"Kampala","pinyin":"nanzidao","zip":"101310230"},
{"name":"Lusaka","pinyin":"nanzidao","zip":"101310230"},
{"name":"Djamena","pinyin":"nanzidao","zip":"101310230"},
{"name":"Bangui","pinyin":"nanzidao","zip":"101310230"},
{"name":"Canberra","pinyin":"nanzidao","zip":"101310230"},
{"name":"Port_Moresby","pinyin":"nanzidao","zip":"101310230"},
{"name":"Suva","pinyin":"nanzidao","zip":"101310230"},
{"name":"Palikir","pinyin":"nanzidao","zip":"101310230"},
{"name":"Yaren","pinyin":"nanzidao","zip":"101310230"},
{"name":"Port-Vila","pinyin":"nanzidao","zip":"101310230"},
{"name":"Wellington","pinyin":"nanzidao","zip":"101310230"},
{"name":"Chicago","pinyin":"nanzidao","zip":"101310230"},
{"name":"Houston","pinyin":"nanzidao","zip":"101310230"},
{"name":"Philadelphia","pinyin":"nanzidao","zip":"101310230"},
{"name":"San_Diego","pinyin":"nanzidao","zip":"101310230"},
{"name":"Dallas","pinyin":"nanzidao","zip":"101310230"},
{"name":"San_Antonio","pinyin":"nanzidao","zip":"101310230"},
{"name":"Detroit","pinyin":"nanzidao","zip":"101310230"},
{"name":"San_Jose","pinyin":"nanzidao","zip":"101310230"},
{"name":"Indianapolis","pinyin":"nanzidao","zip":"101310230"},
{"name":"San_Francisco","pinyin":"nanzidao","zip":"101310230"},
{"name":"Columbus","pinyin":"nanzidao","zip":"101310230"},
{"name":"Austin","pinyin":"nanzidao","zip":"101310230"},
{"name":"Baltimore","pinyin":"nanzidao","zip":"101310230"},
{"name":"Boston","pinyin":"nanzidao","zip":"101310230"},
{"name":"Washington_D.C","pinyin":"nanzidao","zip":"101310230"},
{"name":"Seattle","pinyin":"nanzidao","zip":"101310230"},
{"name":"Denver","pinyin":"nanzidao","zip":"101310230"},
{"name":"Charlotte","pinyin":"nanzidao","zip":"101310230"},
{"name":"Fort_Worth","pinyin":"nanzidao","zip":"101310230"},
{"name":"Portland","pinyin":"nanzidao","zip":"101310230"},
{"name":"New_Orleans","pinyin":"nanzidao","zip":"101310230"},
{"name":"Las_Vegas","pinyin":"nanzidao","zip":"101310230"},
{"name":"Cleveland","pinyin":"nanzidao","zip":"101310230"},
{"name":"Oakland","pinyin":"nanzidao","zip":"101310230"},
{"name":"Albuquerque","pinyin":"nanzidao","zip":"101310230"},
{"name":"Kansas","pinyin":"nanzidao","zip":"101310230"},
{"name":"Virginia","pinyin":"nanzidao","zip":"101310230"},
{"name":"Virginia","pinyin":"nanzidao","zip":"101310230"},
{"name":"Sacramento","pinyin":"nanzidao","zip":"101310230"},
{"name":"Omaha","pinyin":"nanzidao","zip":"101310230"},
{"name":"Minneapolis","pinyin":"nanzidao","zip":"101310230"},
{"name":"Honolulu","pinyin":"nanzidao","zip":"101310230"},
{"name":"Wichita","pinyin":"nanzidao","zip":"101310230"},
{"name":"Colorado_Springs","pinyin":"nanzidao","zip":"101310230"},
{"name":"St. Louis","pinyin":"nanzidao","zip":"101310230"},
{"name":"Pittsburgh","pinyin":"nanzidao","zip":"101310230"},
{"name":"Santa_Ana","pinyin":"nanzidao","zip":"101310230"},
{"name":"Hamburg","pinyin":"nanzidao","zip":"101310230"},
{"name":"Hanover","pinyin":"nanzidao","zip":"101310230"},
{"name":"Arlington","pinyin":"nanzidao","zip":"101310230"},
{"name":"Cincinnati","pinyin":"nanzidao","zip":"101310230"},
{"name":"Frankfurt","pinyin":"nanzidao","zip":"101310230"},
{"name":"Salzburg","pinyin":"nanzidao","zip":"101310230"},
{"name":"Graz","pinyin":"nanzidao","zip":"101310230"},
{"name":"Innsbruck","pinyin":"nanzidao","zip":"101310230"},
{"name":"Linz","pinyin":"nanzidao","zip":"101310230"},
{"name":"Klagenfurt","pinyin":"nanzidao","zip":"101310230"},
{"name":"Kork","pinyin":"nanzidao","zip":"101310230"},
{"name":"Limerick","pinyin":"nanzidao","zip":"101310230"},
{"name":"Watford","pinyin":"nanzidao","zip":"101310230"},
{"name":"Tartu","pinyin":"nanzidao","zip":"101310230"},
{"name":"Narva","pinyin":"nanzidao","zip":"101310230"},
{"name":"Kohtla-Jarve","pinyin":"nanzidao","zip":"101310230"},
{"name":"Parnu","pinyin":"nanzidao","zip":"101310230"},
{"name":"Viljandi","pinyin":"nanzidao","zip":"101310230"},
{"name":"Rakvere","pinyin":"nanzidao","zip":"101310230"},
{"name":"Sillamae","pinyin":"nanzidao","zip":"101310230"},
{"name":"Maardu","pinyin":"nanzidao","zip":"101310230"},
{"name":"Kuressaare","pinyin":"nanzidao","zip":"101310230"},
{"name":"Voru","pinyin":"nanzidao","zip":"101310230"},
{"name":"Haapsalu","pinyin":"nanzidao","zip":"101310230"},
{"name":"Johvi","pinyin":"nanzidao","zip":"101310230"},
{"name":"Akureyri","pinyin":"nanzidao","zip":"101310230"},
{"name":"Keflavik","pinyin":"nanzidao","zip":"101310230"},
{"name":"Poznan","pinyin":"nanzidao","zip":"101310230"},
{"name":"Lodz","pinyin":"nanzidao","zip":"101310230"},
{"name":"Krakow","pinyin":"nanzidao","zip":"101310230"},
{"name":"Wroclaw","pinyin":"nanzidao","zip":"101310230"},
{"name":"Gdansk","pinyin":"nanzidao","zip":"101310230"},
{"name":"Zakopane","pinyin":"nanzidao","zip":"101310230"},
{"name":"Bruges","pinyin":"nanzidao","zip":"101310230"},
{"name":"Waterloo","pinyin":"nanzidao","zip":"101310230"},
{"name":"Aarhus","pinyin":"nanzidao","zip":"101310230"},
{"name":"Odense","pinyin":"nanzidao","zip":"101310230"},
{"name":"Aalborg","pinyin":"nanzidao","zip":"101310230"},
{"name":"Frederiksberg","pinyin":"nanzidao","zip":"101310230"},
{"name":"Esbjerg","pinyin":"nanzidao","zip":"101310230"},
{"name":"Gentofte","pinyin":"nanzidao","zip":"101310230"},
{"name":"Gladsaxe_Municipality","pinyin":"nanzidao","zip":"101310230"},
{"name":"Randers","pinyin":"nanzidao","zip":"101310230"},
{"name":"Koldinghus","pinyin":"nanzidao","zip":"101310230"},
{"name":"Yekaterinburg","pinyin":"nanzidao","zip":"101310230"},
{"name":"Nizhniy_Novgorod","pinyin":"nanzidao","zip":"101310230"},
{"name":"Novosibirsk","pinyin":"nanzidao","zip":"101310230"},
{"name":"Khabarovsk","pinyin":"nanzidao","zip":"101310230"},
{"name":"Vladivostok","pinyin":"nanzidao","zip":"101310230"},
{"name":"Ulan-Ude","pinyin":"nanzidao","zip":"101310230"},
{"name":"Lyon","pinyin":"nanzidao","zip":"101310230"},
{"name":"Marseille","pinyin":"nanzidao","zip":"101310230"},
{"name":"Lille","pinyin":"nanzidao","zip":"101310230"},
{"name":"Toulouse","pinyin":"nanzidao","zip":"101310230"},
{"name":"Nice","pinyin":"nanzidao","zip":"101310230"},
{"name":"Nantes","pinyin":"nanzidao","zip":"101310230"},
{"name":"Bordeaux","pinyin":"nanzidao","zip":"101310230"},
{"name":"Rovaniemi","pinyin":"nanzidao","zip":"101310230"},
{"name":"Tampere","pinyin":"nanzidao","zip":"101310230"},
{"name":"Lahti","pinyin":"nanzidao","zip":"101310230"},
{"name":"Turku","pinyin":"nanzidao","zip":"101310230"},
{"name":"The_Hague","pinyin":"nanzidao","zip":"101310230"},
{"name":"Rotterdam","pinyin":"nanzidao","zip":"101310230"},
{"name":"Karlovy_Vary","pinyin":"nanzidao","zip":"101310230"},
{"name":"Cesky_Krumlov","pinyin":"nanzidao","zip":"101310230"},
{"name":"Split","pinyin":"nanzidao","zip":"101310230"},
{"name":"Rijeka","pinyin":"nanzidao","zip":"101310230"},
{"name":"Osijek","pinyin":"nanzidao","zip":"101310230"},
{"name":"Daugavpils","pinyin":"nanzidao","zip":"101310230"},
{"name":"Libava","pinyin":"nanzidao","zip":"101310230"},
{"name":"Wentspils","pinyin":"nanzidao","zip":"101310230"},
{"name":"Jurmala","pinyin":"nanzidao","zip":"101310230"},
{"name":"Kaunas","pinyin":"nanzidao","zip":"101310230"},
{"name":"Trakai","pinyin":"nanzidao","zip":"101310230"},
{"name":"Siauliai","pinyin":"nanzidao","zip":"101310230"},
{"name":"Klaipeda County","pinyin":"nanzidao","zip":"101310230"},
{"name":"Palanga","pinyin":"nanzidao","zip":"101310230"},
{"name":"Iasi","pinyin":"nanzidao","zip":"101310230"},
{"name":"Timisoara","pinyin":"nanzidao","zip":"101310230"},
{"name":"Cluj-Napoca","pinyin":"nanzidao","zip":"101310230"},
{"name":"Constanta","pinyin":"nanzidao","zip":"101310230"},
{"name":"Craiova","pinyin":"nanzidao","zip":"101310230"},
{"name":"Galati","pinyin":"nanzidao","zip":"101310230"},
{"name":"Brasov","pinyin":"nanzidao","zip":"101310230"},
{"name":"Bitola","pinyin":"nanzidao","zip":"101310230"},
{"name":"Kumanovo","pinyin":"nanzidao","zip":"101310230"},
{"name":"Prilep","pinyin":"nanzidao","zip":"101310230"},
{"name":"Tetovo","pinyin":"nanzidao","zip":"101310230"},
{"name":"Belize","pinyin":"nanzidao","zip":"101310230"},
{"name":"Bergen","pinyin":"nanzidao","zip":"101310230"},
{"name":"Trondheim","pinyin":"nanzidao","zip":"101310230"},
{"name":"Stavanger","pinyin":"nanzidao","zip":"101310230"},
{"name":"Aveiro","pinyin":"nanzidao","zip":"101310230"},
{"name":"Beja_Municipality","pinyin":"nanzidao","zip":"101310230"},
{"name":"Braga","pinyin":"nanzidao","zip":"101310230"},
{"name":"Braganca","pinyin":"nanzidao","zip":"101310230"},
{"name":"Castelo Branco","pinyin":"nanzidao","zip":"101310230"},
{"name":"Coimbra","pinyin":"nanzidao","zip":"101310230"},
{"name":"Evora","pinyin":"nanzidao","zip":"101310230"},
{"name":"Faro","pinyin":"nanzidao","zip":"101310230"},
{"name":"Guarda","pinyin":"nanzidao","zip":"101310230"},
{"name":"Leiria","pinyin":"nanzidao","zip":"101310230"},
{"name":"Portalegre","pinyin":"nanzidao","zip":"101310230"},
{"name":"Porto","pinyin":"nanzidao","zip":"101310230"},
{"name":"Santarem","pinyin":"nanzidao","zip":"101310230"},
{"name":"Setubal","pinyin":"nanzidao","zip":"101310230"},
{"name":"Viana_do_Castelo_Municipality","pinyin":"nanzidao","zip":"101310230"},
{"name":"Vila_Real","pinyin":"nanzidao","zip":"101310230"},
{"name":"Viseu","pinyin":"nanzidao","zip":"101310230"},
{"name":"Uppsala","pinyin":"nanzidao","zip":"101310230"},
{"name":"Sodermanland","pinyin":"nanzidao","zip":"101310230"},
{"name":"Ostergotland","pinyin":"nanzidao","zip":"101310230"},
{"name":"Jonkoping","pinyin":"nanzidao","zip":"101310230"},
{"name":"Kronoberg","pinyin":"nanzidao","zip":"101310230"},
{"name":"Kalmar","pinyin":"nanzidao","zip":"101310230"},
{"name":"Blekinge","pinyin":"nanzidao","zip":"101310230"},
{"name":"Skane","pinyin":"nanzidao","zip":"101310230"},
{"name":"Geneva","pinyin":"nanzidao","zip":"101310230"},
{"name":"Zurich","pinyin":"nanzidao","zip":"101310230"},
{"name":"Lausanne","pinyin":"nanzidao","zip":"101310230"},
{"name":"Basel","pinyin":"nanzidao","zip":"101310230"},
{"name":"Kosice","pinyin":"nanzidao","zip":"101310230"},
{"name":"Zilina","pinyin":"nanzidao","zip":"101310230"},
{"name":"Kharkiv","pinyin":"nanzidao","zip":"101310230"},
{"name":"Donetsk","pinyin":"nanzidao","zip":"101310230"},
{"name":"L'viv","pinyin":"nanzidao","zip":"101310230"},
{"name":"Barcelona","pinyin":"nanzidao","zip":"101310230"},
{"name":"Granada","pinyin":"nanzidao","zip":"101310230"},
{"name":"Seville","pinyin":"nanzidao","zip":"101310230"},
{"name":"Bilbao","pinyin":"nanzidao","zip":"101310230"},
{"name":"Santiago_de_Compostela","pinyin":"nanzidao","zip":"101310230"},
{"name":"Valencia","pinyin":"nanzidao","zip":"101310230"},
{"name":"Las_Palmas","pinyin":"nanzidao","zip":"101310230"},
{"name":"Kamari","pinyin":"nanzidao","zip":"101310230"},
{"name":"Mykonos","pinyin":"nanzidao","zip":"101310230"},
{"name":"Crete","pinyin":"nanzidao","zip":"101310230"},
{"name":"Miskolc","pinyin":"nanzidao","zip":"101310230"},
{"name":"Debrecen","pinyin":"nanzidao","zip":"101310230"},
{"name":"Pecs","pinyin":"nanzidao","zip":"101310230"},
{"name":"Szekesfehervar","pinyin":"nanzidao","zip":"101310230"},
{"name":"Kecskemet","pinyin":"nanzidao","zip":"101310230"},
{"name":"Milan","pinyin":"nanzidao","zip":"101310230"},
{"name":"Florence","pinyin":"nanzidao","zip":"101310230"},
{"name":"Napoli","pinyin":"nanzidao","zip":"101310230"},
{"name":"Turin","pinyin":"nanzidao","zip":"101310230"},
{"name":"Genoa","pinyin":"nanzidao","zip":"101310230"},
{"name":"Venice","pinyin":"nanzidao","zip":"101310230"},
{"name":"Konduz","pinyin":"nanzidao","zip":"101310230"},
{"name":"Balkh","pinyin":"nanzidao","zip":"101310230"},
{"name":"Jowzjan","pinyin":"nanzidao","zip":"101310230"},
{"name":"Faryab","pinyin":"nanzidao","zip":"101310230"},
{"name":"Dubai","pinyin":"nanzidao","zip":"101310230"},
{"name":"Karachi","pinyin":"nanzidao","zip":"101310230"},
{"name":"Lahore","pinyin":"nanzidao","zip":"101310230"},
{"name":"Rawalpindi","pinyin":"nanzidao","zip":"101310230"},
{"name":"Punakha","pinyin":"nanzidao","zip":"101310230"},
{"name":"Bumthang","pinyin":"nanzidao","zip":"101310230"},
{"name":"Trongsa","pinyin":"nanzidao","zip":"101310230"},
{"name":"Thimphu","pinyin":"nanzidao","zip":"101310230"},
{"name":"Paro_Dzong","pinyin":"nanzidao","zip":"101310230"},
{"name":"Punakha_Dzong","pinyin":"nanzidao","zip":"101310230"},
{"name":"Nampo","pinyin":"nanzidao","zip":"101310230"},
{"name":"Kaesong","pinyin":"nanzidao","zip":"101310230"},
{"name":"Wonsan","pinyin":"nanzidao","zip":"101310230"},
{"name":"Raseon","pinyin":"nanzidao","zip":"101310230"},
{"name":"Cebu","pinyin":"nanzidao","zip":"101310230"},
{"name":"Davao_City","pinyin":"nanzidao","zip":"101310230"},
{"name":"Busan","pinyin":"nanzidao","zip":"101310230"},
{"name":"Daegu","pinyin":"nanzidao","zip":"101310230"},
{"name":"Incheon","pinyin":"nanzidao","zip":"101310230"},
{"name":"Gwangju","pinyin":"nanzidao","zip":"101310230"},
{"name":"Daejon","pinyin":"nanzidao","zip":"101310230"},
{"name":"Ulsan","pinyin":"nanzidao","zip":"101310230"},
{"name":"Preah_Seihanu","pinyin":"nanzidao","zip":"101310230"},
{"name":"Batdambang","pinyin":"nanzidao","zip":"101310230"},
{"name":"Krachen","pinyin":"nanzidao","zip":"101310230"},
{"name":"Kampot","pinyin":"nanzidao","zip":"101310230"},
{"name":"Whitehorse","pinyin":"nanzidao","zip":"101310230"},
{"name":"Ras_Laffan Industrial City","pinyin":"nanzidao","zip":"101310230"},
{"name":"Dukhan","pinyin":"nanzidao","zip":"101310230"},
{"name":"Tripoli","pinyin":"nanzidao","zip":"101310230"},
{"name":"Saida","pinyin":"nanzidao","zip":"101310230"},
{"name":"Sour","pinyin":"nanzidao","zip":"101310230"},
{"name":"Melaka","pinyin":"nanzidao","zip":"101310230"},
{"name":"Pulau_Penang","pinyin":"nanzidao","zip":"101310230"},
{"name":"Kuching","pinyin":"nanzidao","zip":"101310230"},
{"name":"Ipon","pinyin":"nanzidao","zip":"101310230"},
{"name":"Johor_Bahru","pinyin":"nanzidao","zip":"101310230"},
{"name":"Barisal","pinyin":"nanzidao","zip":"101310230"},
{"name":"Chittagong","pinyin":"nanzidao","zip":"101310230"},
{"name":"Jessore","pinyin":"nanzidao","zip":"101310230"},
{"name":"Rajshahi","pinyin":"nanzidao","zip":"101310230"},
{"name":"Bassein","pinyin":"nanzidao","zip":"101310230"},
{"name":"Nay_Pyi_Taw","pinyin":"nanzidao","zip":"101310230"},
{"name":"Mandalay","pinyin":"nanzidao","zip":"101310230"},
{"name":"Sagaing","pinyin":"nanzidao","zip":"101310230"},
{"name":"Myitkyina","pinyin":"nanzidao","zip":"101310230"},
{"name":"Taunggyi","pinyin":"nanzidao","zip":"101310230"},
{"name":"Lalitpur","pinyin":"nanzidao","zip":"101310230"},
{"name":"Pokhara","pinyin":"nanzidao","zip":"101310230"},
{"name":"Nagoya-shi","pinyin":"nanzidao","zip":"101310230"},
{"name":"Kyoto-shi","pinyin":"nanzidao","zip":"101310230"},
{"name":"Kobe-shi","pinyin":"nanzidao","zip":"101310230"},
{"name":"Kitakyushu-shi","pinyin":"nanzidao","zip":"101310230"},
{"name":"Larnaca","pinyin":"nanzidao","zip":"101310230"},
{"name":"Limassol_District","pinyin":"nanzidao","zip":"101310230"},
{"name":"Paphos_District","pinyin":"nanzidao","zip":"101310230"},
{"name":"Kandy","pinyin":"nanzidao","zip":"101310230"},
{"name":"Galle","pinyin":"nanzidao","zip":"101310230"},
{"name":"Trincomalee","pinyin":"nanzidao","zip":"101310230"},
{"name":"Negombo","pinyin":"nanzidao","zip":"101310230"},
{"name":"Hambantota","pinyin":"nanzidao","zip":"101310230"},
{"name":"Jaffna","pinyin":"nanzidao","zip":"101310230"},
{"name":"Nuwara_Eliya","pinyin":"nanzidao","zip":"101310230"},
{"name":"Phuket","pinyin":"nanzidao","zip":"101310230"},
{"name":"Pattaya","pinyin":"nanzidao","zip":"101310230"},
{"name":"Chiang_Rai","pinyin":"nanzidao","zip":"101310230"},
{"name":"Similan_Mu_Ko","pinyin":"nanzidao","zip":"101310230"},
{"name":"Istanbul","pinyin":"nanzidao","zip":"101310230"},
{"name":"Izmir","pinyin":"nanzidao","zip":"101310230"},
{"name":"Bursa_Province","pinyin":"nanzidao","zip":"101310230"},
{"name":"Adana","pinyin":"nanzidao","zip":"101310230"},
{"name":"Gaziantep","pinyin":"nanzidao","zip":"101310230"},
{"name":"Konya","pinyin":"nanzidao","zip":"101310230"},
{"name":"Antalya","pinyin":"nanzidao","zip":"101310230"},
{"name":"Kayseri","pinyin":"nanzidao","zip":"101310230"},
{"name":"Samsun","pinyin":"nanzidao","zip":"101310230"},
{"name":"Van","pinyin":"nanzidao","zip":"101310230"},
{"name":"Sivas","pinyin":"nanzidao","zip":"101310230"},
{"name":"Trabzon","pinyin":"nanzidao","zip":"101310230"},
{"name":"Edirne","pinyin":"nanzidao","zip":"101310230"},
{"name":"Erzincan","pinyin":"nanzidao","zip":"101310230"},
{"name":"Iznik","pinyin":"nanzidao","zip":"101310230"},
{"name":"Bergama","pinyin":"nanzidao","zip":"101310230"},
{"name":"Goreme","pinyin":"nanzidao","zip":"101310230"},
{"name":"Andijon","pinyin":"nanzidao","zip":"101310230"},
{"name":"Bukhara","pinyin":"nanzidao","zip":"101310230"},
{"name":"Farghona","pinyin":"nanzidao","zip":"101310230"},
{"name":"Jizzakh","pinyin":"nanzidao","zip":"101310230"},
{"name":"Nawoiy","pinyin":"nanzidao","zip":"101310230"},
{"name":"Qarshi","pinyin":"nanzidao","zip":"101310230"},
{"name":"Samarqand","pinyin":"nanzidao","zip":"101310230"},
{"name":"Guliston","pinyin":"nanzidao","zip":"101310230"},
{"name":"Termez","pinyin":"nanzidao","zip":"101310230"},
{"name":"Urganch","pinyin":"nanzidao","zip":"101310230"},
{"name":"Nukus","pinyin":"nanzidao","zip":"101310230"},
{"name":"Baghdad","pinyin":"nanzidao","zip":"101310230"},
{"name":"Al Basrah","pinyin":"nanzidao","zip":"101310230"},
{"name":"Fallujah","pinyin":"nanzidao","zip":"101310230"},
{"name":"Mosul","pinyin":"nanzidao","zip":"101310230"},
{"name":"Tikrit","pinyin":"nanzidao","zip":"101310230"},
{"name":"Muntafik","pinyin":"nanzidao","zip":"101310230"},
{"name":"Ramadie","pinyin":"nanzidao","zip":"101310230"},
{"name":"Tel_Aviv","pinyin":"nanzidao","zip":"101310230"},
{"name":"Haifa","pinyin":"nanzidao","zip":"101310230"},
{"name":"Beersheba","pinyin":"nanzidao","zip":"101310230"},
{"name":"Elat","pinyin":"nanzidao","zip":"101310230"},
{"name":"Mumbai","pinyin":"nanzidao","zip":"101310230"},
{"name":"Chennai","pinyin":"nanzidao","zip":"101310230"},
{"name":"Bengaluru","pinyin":"nanzidao","zip":"101310230"},
{"name":"Ahmedabad","pinyin":"nanzidao","zip":"101310230"},
{"name":"Hyderabad","pinyin":"nanzidao","zip":"101310230"},
{"name":"Kanpur","pinyin":"nanzidao","zip":"101310230"},
{"name":"Pune","pinyin":"nanzidao","zip":"101310230"},
{"name":"Nagpur","pinyin":"nanzidao","zip":"101310230"},
{"name":"Irbid","pinyin":"nanzidao","zip":"101310230"},
{"name":"Hue","pinyin":"nanzidao","zip":"101310230"},
{"name":"Nha_Trang","pinyin":"nanzidao","zip":"101310230"},
{"name":"Cordoba","pinyin":"nanzidao","zip":"101310230"},
{"name":"Rosario","pinyin":"nanzidao","zip":"101310230"},
{"name":"La_Plata","pinyin":"nanzidao","zip":"101310230"},
{"name":"Mar_del_Plata","pinyin":"nanzidao","zip":"101310230"},
{"name":"Mendoza","pinyin":"nanzidao","zip":"101310230"},
{"name":"Speightstown","pinyin":"nanzidao","zip":"101310230"},
{"name":"Holetown","pinyin":"nanzidao","zip":"101310230"},
{"name":"La_Paz","pinyin":"nanzidao","zip":"101310230"},
{"name":"Santa_Cruz_Department","pinyin":"nanzidao","zip":"101310230"},
{"name":"Oruro","pinyin":"nanzidao","zip":"101310230"},
{"name":"Cochabamba","pinyin":"nanzidao","zip":"101310230"},
{"name":"Potosi","pinyin":"nanzidao","zip":"101310230"},
{"name":"Sao_Paulo","pinyin":"nanzidao","zip":"101310230"},
{"name":"Rio_de_Janeiro","pinyin":"nanzidao","zip":"101310230"},
{"name":"Salvador","pinyin":"nanzidao","zip":"101310230"},
{"name":"Belo_Horizonte","pinyin":"nanzidao","zip":"101310230"},
{"name":"Fortaleza","pinyin":"nanzidao","zip":"101310230"},
{"name":"Curitiba","pinyin":"nanzidao","zip":"101310230"},
{"name":"Porto_Alegre","pinyin":"nanzidao","zip":"101310230"},
{"name":"Guayaquil","pinyin":"nanzidao","zip":"101310230"},
{"name":"Cuenca","pinyin":"nanzidao","zip":"101310230"},
{"name":"Ambato","pinyin":"nanzidao","zip":"101310230"},
{"name":"Machala","pinyin":"nanzidao","zip":"101310230"},
{"name":"Santiago_de_Cuba","pinyin":"nanzidao","zip":"101310230"},
{"name":"Camaguey","pinyin":"nanzidao","zip":"101310230"},
{"name":"Medellin","pinyin":"nanzidao","zip":"101310230"},
{"name":"Cali","pinyin":"nanzidao","zip":"101310230"},
{"name":"Barranquilla","pinyin":"nanzidao","zip":"101310230"},
{"name":"Cartagena_de_Indias","pinyin":"nanzidao","zip":"101310230"},
{"name":"Bucaramanga","pinyin":"nanzidao","zip":"101310230"},
{"name":"Ibague","pinyin":"nanzidao","zip":"101310230"},
{"name":"Pereira","pinyin":"nanzidao","zip":"101310230"},
{"name":"Manizales","pinyin":"nanzidao","zip":"101310230"},
{"name":"Monteria","pinyin":"nanzidao","zip":"101310230"},
{"name":"Pasto","pinyin":"nanzidao","zip":"101310230"},
{"name":"Villavicencio","pinyin":"nanzidao","zip":"101310230"},
{"name":"Cucuta","pinyin":"nanzidao","zip":"101310230"},
{"name":"Fredericton","pinyin":"nanzidao","zip":"101310230"},
{"name":"Halifax","pinyin":"nanzidao","zip":"101310230"},
{"name":"Cape_Breton","pinyin":"nanzidao","zip":"101310230"},
{"name":"Toronto","pinyin":"nanzidao","zip":"101310230"},
{"name":"Hamilton","pinyin":"nanzidao","zip":"101310230"},
{"name":"Kitchener","pinyin":"nanzidao","zip":"101310230"},
{"name":"St.Catharines","pinyin":"nanzidao","zip":"101310230"},
{"name":"Oshawa","pinyin":"nanzidao","zip":"101310230"},
{"name":"Barrie","pinyin":"nanzidao","zip":"101310230"},
{"name":"Guelph","pinyin":"nanzidao","zip":"101310230"},
{"name":"Sudbury","pinyin":"nanzidao","zip":"101310230"},
{"name":"Thunder_Bay","pinyin":"nanzidao","zip":"101310230"},
{"name":"Quebec","pinyin":"nanzidao","zip":"101310230"},
{"name":"Montreal","pinyin":"nanzidao","zip":"101310230"},
{"name":"Sherbrooke","pinyin":"nanzidao","zip":"101310230"},
{"name":"Trois-Rivieres","pinyin":"nanzidao","zip":"101310230"},
{"name":"Chicoutimi","pinyin":"nanzidao","zip":"101310230"},
{"name":"Winnipeg","pinyin":"nanzidao","zip":"101310230"},
{"name":"Vancouver","pinyin":"nanzidao","zip":"101310230"},
{"name":"Abbotsford","pinyin":"nanzidao","zip":"101310230"},
{"name":"Kelowna","pinyin":"nanzidao","zip":"101310230"},
{"name":"Charlottetown","pinyin":"nanzidao","zip":"101310230"},
{"name":"Edmonton","pinyin":"nanzidao","zip":"101310230"},
{"name":"Calgary","pinyin":"nanzidao","zip":"101310230"},
{"name":"Regina","pinyin":"nanzidao","zip":"101310230"},
{"name":"Saskatoon","pinyin":"nanzidao","zip":"101310230"},
{"name":"Saint-Johns","pinyin":"nanzidao","zip":"101310230"},
{"name":"Yellowknife","pinyin":"nanzidao","zip":"101310230"},
{"name":"Whitehorse","pinyin":"nanzidao","zip":"101310230"},
{"name":"Iqaluit","pinyin":"nanzidao","zip":"101310230"},
{"name":"Cusco","pinyin":"nanzidao","zip":"101310230"},
{"name":"Arequipa","pinyin":"nanzidao","zip":"101310230"},
{"name":"Ayacucho","pinyin":"nanzidao","zip":"101310230"},
{"name":"Huanuco","pinyin":"nanzidao","zip":"101310230"},
{"name":"Iquitos","pinyin":"nanzidao","zip":"101310230"},
{"name":"Guadalajara","pinyin":"nanzidao","zip":"101310230"},
{"name":"Monterrey","pinyin":"nanzidao","zip":"101310230"},
{"name":"Puebla","pinyin":"nanzidao","zip":"101310230"},
{"name":"Maracaibo","pinyin":"nanzidao","zip":"101310230"},
{"name":"Valencia","pinyin":"nanzidao","zip":"101310230"},
{"name":"La_Guaira","pinyin":"nanzidao","zip":"101310230"},
{"name":"Puerto_La_Cruz","pinyin":"nanzidao","zip":"101310230"},
{"name":"Cumana","pinyin":"nanzidao","zip":"101310230"},
{"name":"Coro","pinyin":"nanzidao","zip":"101310230"},
{"name":"Barquisimeto","pinyin":"nanzidao","zip":"101310230"},
{"name":"La_Mercedes","pinyin":"nanzidao","zip":"101310230"},
{"name":"Ei_Tigre","pinyin":"nanzidao","zip":"101310230"},
{"name":"Maturin","pinyin":"nanzidao","zip":"101310230"},
{"name":"Tucupita","pinyin":"nanzidao","zip":"101310230"},
{"name":"Puerto_Ayacucho","pinyin":"nanzidao","zip":"101310230"},
{"name":"Alexandria","pinyin":"nanzidao","zip":"101310230"},
{"name":"Al_Ismailiyah","pinyin":"nanzidao","zip":"101310230"},
{"name":"Said","pinyin":"nanzidao","zip":"101310230"},
{"name":"Sharm_el_Sheikh","pinyin":"nanzidao","zip":"101310230"},
{"name":"Dire_Dawa","pinyin":"nanzidao","zip":"101310230"},
{"name":"Harald","pinyin":"nanzidao","zip":"101310230"},
{"name":"Gonder","pinyin":"nanzidao","zip":"101310230"},
{"name":"Lalibela","pinyin":"nanzidao","zip":"101310230"},
{"name":"Axum","pinyin":"nanzidao","zip":"101310230"},
{"name":"Dar_Bach","pinyin":"nanzidao","zip":"101310230"},
{"name":"Porto_Amboim","pinyin":"nanzidao","zip":"101310230"},
{"name":"Lobito","pinyin":"nanzidao","zip":"101310230"},
{"name":"Benguela","pinyin":"nanzidao","zip":"101310230"},
{"name":"Cabinda","pinyin":"nanzidao","zip":"101310230"},
{"name":"Uige","pinyin":"nanzidao","zip":"101310230"},
{"name":"Cotonou","pinyin":"nanzidao","zip":"101310230"},
{"name":"Francistown","pinyin":"nanzidao","zip":"101310230"},
{"name":"Lobatse","pinyin":"nanzidao","zip":"101310230"},
{"name":"Jwaneng","pinyin":"nanzidao","zip":"101310230"},
{"name":"Bobo-Dioulasso","pinyin":"nanzidao","zip":"101310230"},
{"name":"Dedougou","pinyin":"nanzidao","zip":"101310230"},
{"name":"Gaoua","pinyin":"nanzidao","zip":"101310230"},
{"name":"Banfora_Department","pinyin":"nanzidao","zip":"101310230"},
{"name":"Koudougou","pinyin":"nanzidao","zip":"101310230"},
{"name":"Ouahigouya","pinyin":"nanzidao","zip":"101310230"},
{"name":"Gitega","pinyin":"nanzidao","zip":"101310230"},
{"name":"Pointe-Noire","pinyin":"nanzidao","zip":"101310230"},
{"name":"Matadi","pinyin":"nanzidao","zip":"101310230"},
{"name":"Boma","pinyin":"nanzidao","zip":"101310230"},
{"name":"Lubumbashi","pinyin":"nanzidao","zip":"101310230"},
{"name":"Goma","pinyin":"nanzidao","zip":"101310230"},
{"name":"Kisangani","pinyin":"nanzidao","zip":"101310230"},
{"name":"Madina","pinyin":"nanzidao","zip":"101310230"},
{"name":"Bafata","pinyin":"nanzidao","zip":"101310230"},
{"name":"Cacheu","pinyin":"nanzidao","zip":"101310230"},
{"name":"Carcassonne_fruit","pinyin":"nanzidao","zip":"101310230"},
{"name":"Sao_Domingos","pinyin":"nanzidao","zip":"101310230"},
{"name":"Kumasi","pinyin":"nanzidao","zip":"101310230"},
{"name":"Tema","pinyin":"nanzidao","zip":"101310230"},
{"name":"Takoradi","pinyin":"nanzidao","zip":"101310230"},
{"name":"Mutsamudu","pinyin":"nanzidao","zip":"101310230"},
{"name":"Foumbouni","pinyin":"nanzidao","zip":"101310230"},
{"name":"Mombasa","pinyin":"nanzidao","zip":"101310230"},
{"name":"Toamasina","pinyin":"nanzidao","zip":"101310230"},
{"name":"Antsirabe","pinyin":"nanzidao","zip":"101310230"},
{"name":"Mahajanga","pinyin":"nanzidao","zip":"101310230"},
{"name":"Antseranana","pinyin":"nanzidao","zip":"101310230"},
{"name":"Fianarantsoa","pinyin":"nanzidao","zip":"101310230"},
{"name":"Toliara","pinyin":"nanzidao","zip":"101310230"},
{"name":"Casablanca","pinyin":"nanzidao","zip":"101310230"},
{"name":"Swakopmund","pinyin":"nanzidao","zip":"101310230"},
{"name":"Walvis_Bay","pinyin":"nanzidao","zip":"101310230"},
{"name":"Messina","pinyin":"nanzidao","zip":"101310230"},
{"name":"Pietersburg","pinyin":"nanzidao","zip":"101310230"},
{"name":"Mafikeng","pinyin":"nanzidao","zip":"101310230"},
{"name":"Johannesburg","pinyin":"nanzidao","zip":"101310230"},
{"name":"Springs","pinyin":"nanzidao","zip":"101310230"},
{"name":"Welkom","pinyin":"nanzidao","zip":"101310230"},
{"name":"Ladysmith","pinyin":"nanzidao","zip":"101310230"},
{"name":"Kimberly","pinyin":"nanzidao","zip":"101310230"},
{"name":"De_Aar","pinyin":"nanzidao","zip":"101310230"},
{"name":"East_London","pinyin":"nanzidao","zip":"101310230"},
{"name":"Port_Elizabeth","pinyin":"nanzidao","zip":"101310230"},
{"name":"Mossel_Bay","pinyin":"nanzidao","zip":"101310230"},
{"name":"Beaufort_West","pinyin":"nanzidao","zip":"101310230"},
{"name":"Worcester","pinyin":"nanzidao","zip":"101310230"},
{"name":"Calvinia","pinyin":"nanzidao","zip":"101310230"},
{"name":"Springbok","pinyin":"nanzidao","zip":"101310230"},
{"name":"Port_Nolloth","pinyin":"nanzidao","zip":"101310230"},
{"name":"Upington","pinyin":"nanzidao","zip":"101310230"},
{"name":"Diffa","pinyin":"nanzidao","zip":"101310230"},
{"name":"Dosso","pinyin":"nanzidao","zip":"101310230"},
{"name":"Maradi","pinyin":"nanzidao","zip":"101310230"},
{"name":"Port_Sudan","pinyin":"nanzidao","zip":"101310230"},
{"name":"Dodoma","pinyin":"nanzidao","zip":"101310230"},
{"name":"Arusha","pinyin":"nanzidao","zip":"101310230"},
{"name":"Mwanza","pinyin":"nanzidao","zip":"101310230"},
{"name":"Sosah","pinyin":"nanzidao","zip":"101310230"},
{"name":"Bizerte","pinyin":"nanzidao","zip":"101310230"},
{"name":"Al_Hammamat","pinyin":"nanzidao","zip":"101310230"},
{"name":"Al_Qayrawan","pinyin":"nanzidao","zip":"101310230"},
{"name":"Jinja","pinyin":"nanzidao","zip":"101310230"},
{"name":"Ndola","pinyin":"nanzidao","zip":"101310230"},
{"name":"Kitwe","pinyin":"nanzidao","zip":"101310230"},
{"name":"Batha_Region","pinyin":"nanzidao","zip":"101310230"},
{"name":"Chari-Baguirmi","pinyin":"nanzidao","zip":"101310230"},
{"name":"Hadjer-Lamis","pinyin":"nanzidao","zip":"101310230"},
{"name":"Wadi_Fira","pinyin":"nanzidao","zip":"101310230"},
{"name":"Bahr_el_Gazel","pinyin":"nanzidao","zip":"101310230"},
{"name":"Borkou","pinyin":"nanzidao","zip":"101310230"},
{"name":"Ennedi","pinyin":"nanzidao","zip":"101310230"},
{"name":"Guera","pinyin":"nanzidao","zip":"101310230"},
{"name":"Kanem","pinyin":"nanzidao","zip":"101310230"},
{"name":"Logone_Occidental","pinyin":"nanzidao","zip":"101310230"},
{"name":"Logone_Oriental","pinyin":"nanzidao","zip":"101310230"},
{"name":"Mandoul","pinyin":"nanzidao","zip":"101310230"},
{"name":"Mayo-Kebbi_Est_Region","pinyin":"nanzidao","zip":"101310230"},
{"name":"Mayo-Kebbi_Ouest_Region","pinyin":"nanzidao","zip":"101310230"},
{"name":"Moyen-Chari","pinyin":"nanzidao","zip":"101310230"},
{"name":"Ouaddai","pinyin":"nanzidao","zip":"101310230"},
{"name":"Salamat_Region","pinyin":"nanzidao","zip":"101310230"},
{"name":"Taingy","pinyin":"nanzidao","zip":"101310230"},
{"name":"Sila","pinyin":"nanzidao","zip":"101310230"},
{"name":"Tibesti","pinyin":"nanzidao","zip":"101310230"},
{"name":"Birao","pinyin":"nanzidao","zip":"101310230"},
{"name":"Bria","pinyin":"nanzidao","zip":"101310230"},
{"name":"Yalinga","pinyin":"nanzidao","zip":"101310230"},
{"name":"Obo","pinyin":"nanzidao","zip":"101310230"},
{"name":"Bambari","pinyin":"nanzidao","zip":"101310230"},
{"name":"Bangassou","pinyin":"nanzidao","zip":"101310230"},
{"name":"Bangui","pinyin":"nanzidao","zip":"101310230"},
{"name":"Bouar","pinyin":"nanzidao","zip":"101310230"},
{"name":"Berberati","pinyin":"nanzidao","zip":"101310230"},
{"name":"Melbourne","pinyin":"nanzidao","zip":"101310230"},
{"name":"Sydney","pinyin":"nanzidao","zip":"101310230"},
{"name":"Adelaide","pinyin":"nanzidao","zip":"101310230"},
{"name":"Brisbane","pinyin":"nanzidao","zip":"101310230"},
{"name":"Townsville_City","pinyin":"nanzidao","zip":"101310230"},
{"name":"Darwin","pinyin":"nanzidao","zip":"101310230"},
{"name":"Perth","pinyin":"nanzidao","zip":"101310230"},
{"name":"Newcastle_City","pinyin":"nanzidao","zip":"101310230"},
{"name":"Christchurch","pinyin":"nanzidao","zip":"101310230"},
{"name":"Dunedin_City","pinyin":"nanzidao","zip":"101310230"},
{"name":"Hamilton","pinyin":"nanzidao","zip":"101310230"},
{"name":"Palmerston_North","pinyin":"nanzidao","zip":"101310230"},
{"name":"Wanganui","pinyin":"nanzidao","zip":"101310230"},
{"name":"New_Plymouth","pinyin":"nanzidao","zip":"101310230"},
{"name":"Invercargill","pinyin":"nanzidao","zip":"101310230"},
{"name":"Rotorua","pinyin":"nanzidao","zip":"101310230"},
{"name":"Nelson","pinyin":"nanzidao","zip":"101310230"},
{"name":"Blenheim","pinyin":"nanzidao","zip":"101310230"},
{"name":"Napier","pinyin":"nanzidao","zip":"101310230"},
{"name":"Gisborne","pinyin":"nanzidao","zip":"101310230"},
{"name":"Tauranga","pinyin":"nanzidao","zip":"101310230"},
{"name":"Picton","pinyin":"nanzidao","zip":"101310230"},
{"name":"Whangarei","pinyin":"nanzidao","zip":"101310230"},
{"name":"Taupo","pinyin":"nanzidao","zip":"101310230"},
{"name":"Greymouth","pinyin":"nanzidao","zip":"101310230"},
{"name":"Queenstown","pinyin":"nanzidao","zip":"101310230"},
{"name":"Apollo_Bay","pinyin":"nanzidao","zip":"101310230"},
{"name":"Aberdeen","pinyin":"nanzidao","zip":"101310230"},
{"name":"Agra","pinyin":"nanzidao","zip":"101310230"},
{"name":"Arcadia","pinyin":"nanzidao","zip":"101310230"},
{"name":"Anaheim","pinyin":"nanzidao","zip":"101310230"},
{"name":"Villeneuve-les-Avignon","pinyin":"nanzidao","zip":"101310230"},
{"name":"Exeter","pinyin":"nanzidao","zip":"101310230"},
{"name":"Erlangen","pinyin":"nanzidao","zip":"101310230"},
{"name":"Essen","pinyin":"nanzidao","zip":"101310230"},
{"name":"Edinburgh","pinyin":"nanzidao","zip":"101310230"},
{"name":"Eindhoven","pinyin":"nanzidao","zip":"101310230"},
{"name":"Ann_Arbor","pinyin":"nanzidao","zip":"101310230"},
{"name":"Annecy","pinyin":"nanzidao","zip":"101310230"},
{"name":"Ann","pinyin":"nanzidao","zip":"101310230"},
{"name":"Antwerp","pinyin":"nanzidao","zip":"101310230"},
{"name":"Hausen","pinyin":"nanzidao","zip":"101310230"},
{"name":"Oldenzaal","pinyin":"nanzidao","zip":"101310230"},
{"name":"Augsburg","pinyin":"nanzidao","zip":"101310230"},
{"name":"Auckland","pinyin":"nanzidao","zip":"101310230"},
{"name":"Orlando","pinyin":"nanzidao","zip":"101310230"},
{"name":"Aalesund","pinyin":"nanzidao","zip":"101310230"},
{"name":"Oulu","pinyin":"nanzidao","zip":"101310230"},
{"name":"Austin","pinyin":"nanzidao","zip":"101310230"},
{"name":"Batam","pinyin":"nanzidao","zip":"101310230"},
{"name":"Baden-Baden","pinyin":"nanzidao","zip":"101310230"},
{"name":"Bagan","pinyin":"nanzidao","zip":"101310230"},
{"name":"Palawan","pinyin":"nanzidao","zip":"101310230"},
{"name":"Palermo","pinyin":"nanzidao","zip":"101310230"},
{"name":"Bali","pinyin":"nanzidao","zip":"101310230"},
{"name":"Klang","pinyin":"nanzidao","zip":"101310230"},
{"name":"Bath","pinyin":"nanzidao","zip":"101310230"},
{"name":"Pai","pinyin":"nanzidao","zip":"101310230"},
{"name":"Bamberg","pinyin":"nanzidao","zip":"101310230"},
{"name":"Banff","pinyin":"nanzidao","zip":"101310230"},
{"name":"Bengaluru","pinyin":"nanzidao","zip":"101310230"},
{"name":"Pangkor","pinyin":"nanzidao","zip":"101310230"},
{"name":"Hokkaido","pinyin":"nanzidao","zip":"101310230"},
{"name":"Belfast","pinyin":"nanzidao","zip":"101310230"},
{"name":"Lixian","pinyin":"nanzidao","zip":"101310230"},
{"name":"Billund","pinyin":"nanzidao","zip":"101310230"},
{"name":"Beppu-shi","pinyin":"nanzidao","zip":"101310230"},
{"name":"Potsdam","pinyin":"nanzidao","zip":"101310230"},
{"name":"Port_Dickson","pinyin":"nanzidao","zip":"101310230"},
{"name":"Bonn","pinyin":"nanzidao","zip":"101310230"},
{"name":"Bordeaux","pinyin":"nanzidao","zip":"101310230"},
{"name":"Bochum","pinyin":"nanzidao","zip":"101310230"},
{"name":"Bournemouth","pinyin":"nanzidao","zip":"101310230"},
{"name":"Berkeley","pinyin":"nanzidao","zip":"101310230"},
{"name":"Birmingham","pinyin":"nanzidao","zip":"101310230"},
{"name":"Bologna","pinyin":"nanzidao","zip":"101310230"},
{"name":"Bohol","pinyin":"nanzidao","zip":"101310230"},
{"name":"Bremen","pinyin":"nanzidao","zip":"101310230"},
{"name":"Buffalo","pinyin":"nanzidao","zip":"101310230"},
{"name":"Buxtehude","pinyin":"nanzidao","zip":"101310230"},
{"name":"Rauen","pinyin":"nanzidao","zip":"101310230"},
{"name":"Brescia","pinyin":"nanzidao","zip":"101310230"},
{"name":"Bristol","pinyin":"nanzidao","zip":"101310230"},
{"name":"Zermatt","pinyin":"nanzidao","zip":"101310230"},
{"name":"Changwon","pinyin":"nanzidao","zip":"101310230"},
{"name":"Nagasaki","pinyin":"nanzidao","zip":"101310230"},
{"name":"Nagano","pinyin":"nanzidao","zip":"101310230"},
{"name":"Narita-shi","pinyin":"nanzidao","zip":"101310230"},
{"name":"Okinawa","pinyin":"nanzidao","zip":"101310230"},
{"name":"Kawasaki-shi","pinyin":"nanzidao","zip":"101310230"},
{"name":"Ladas","pinyin":"nanzidao","zip":"101310230"},
{"name":"Dar_es_Salaam","pinyin":"nanzidao","zip":"101310230"},
{"name":"Darmstadt","pinyin":"nanzidao","zip":"101310230"},
{"name":"Davao","pinyin":"nanzidao","zip":"101310230"},
{"name":"Leuze-en-hainaut","pinyin":"nanzidao","zip":"101310230"},
{"name":"Osaka-shi","pinyin":"nanzidao","zip":"101310230"},
{"name":"Ikusaka-mura","pinyin":"nanzidao","zip":"101310230"},
{"name":"Otsu-shi","pinyin":"nanzidao","zip":"101310230"},
{"name":"Da_Lat","pinyin":"nanzidao","zip":"101310230"},
{"name":"Great_Malvern","pinyin":"nanzidao","zip":"101310230"},
{"name":"Atlantic_City","pinyin":"nanzidao","zip":"101310230"},
{"name":"Dayton","pinyin":"nanzidao","zip":"101310230"},
{"name":"Delft","pinyin":"nanzidao","zip":"101310230"},
{"name":"Davis","pinyin":"nanzidao","zip":"101310230"},
{"name":"Des_Moines","pinyin":"nanzidao","zip":"101310230"},
{"name":"Terengganu","pinyin":"nanzidao","zip":"101310230"},
{"name":"Dundee","pinyin":"nanzidao","zip":"101310230"},
{"name":"Dijon","pinyin":"nanzidao","zip":"101310230"},
{"name":"Arno","pinyin":"nanzidao","zip":"101310230"},
{"name":"Kampung_Tekek","pinyin":"nanzidao","zip":"101310230"},
{"name":"Higashihiroshima-shi","pinyin":"nanzidao","zip":"101310230"},
{"name":"East_Lansing","pinyin":"nanzidao","zip":"101310230"},
{"name":"Tawau","pinyin":"nanzidao","zip":"101310230"},
{"name":"Durham","pinyin":"nanzidao","zip":"101310230"},
{"name":"Dumaguete_City","pinyin":"nanzidao","zip":"101310230"},
{"name":"Dusseldorf","pinyin":"nanzidao","zip":"101310230"},
{"name":"Dortmund","pinyin":"nanzidao","zip":"101310230"},
{"name":"Oklahoma_City","pinyin":"nanzidao","zip":"101310230"},
{"name":"Franz_Josef","pinyin":"nanzidao","zip":"101310230"},
{"name":"Frederick","pinyin":"nanzidao","zip":"101310230"},
{"name":"Phoenix","pinyin":"nanzidao","zip":"101310230"},
{"name":"Freiburg_im_Breisgau","pinyin":"nanzidao","zip":"101310230"},
{"name":"Fukui-shi","pinyin":"nanzidao","zip":"101310230"},
{"name":"Fukuoka-shi","pinyin":"nanzidao","zip":"101310230"},
{"name":"Fox_Glacier","pinyin":"nanzidao","zip":"101310230"},
{"name":"Fussen","pinyin":"nanzidao","zip":"101310230"},
{"name":"Fucheng","pinyin":"nanzidao","zip":"101310230"},
{"name":"Furano-shi","pinyin":"nanzidao","zip":"101310230"},
{"name":"Toyama_Prefecture","pinyin":"nanzidao","zip":"101310230"},
{"name":"Fujikawaguchiko-machi","pinyin":"nanzidao","zip":"101310230"},
{"name":"Kaohsiung_City","pinyin":"nanzidao","zip":"101310230"},
{"name":"Takamatsu-shi","pinyin":"nanzidao","zip":"101310230"},
{"name":"Kaohsiung_City","pinyin":"nanzidao","zip":"101310230"},
{"name":"Kota_Kinabalu","pinyin":"nanzidao","zip":"101310230"},
{"name":"Gothenburg","pinyin":"nanzidao","zip":"101310230"},
{"name":"Goreme","pinyin":"nanzidao","zip":"101310230"},
{"name":"Goettingen","pinyin":"nanzidao","zip":"101310230"},
{"name":"Glasgow","pinyin":"nanzidao","zip":"101310230"},
{"name":"Ghent","pinyin":"nanzidao","zip":"101310230"},
{"name":"Gurgaon","pinyin":"nanzidao","zip":"101310230"},
{"name":"Kuala_Terengganu","pinyin":"nanzidao","zip":"101310230"},
{"name":"Kuantan","pinyin":"nanzidao","zip":"101310230"},
{"name":"Hiroshima-shi","pinyin":"nanzidao","zip":"101310230"},
{"name":"Hallstatt","pinyin":"nanzidao","zip":"101310230"},
{"name":"Heidelberg","pinyin":"nanzidao","zip":"101310230"},
{"name":"Hai_Phong","pinyin":"nanzidao","zip":"101310230"},
{"name":"Hakodate-shi","pinyin":"nanzidao","zip":"101310230"},
{"name":"Hamburg","pinyin":"nanzidao","zip":"101310230"},
{"name":"Hat_Yai","pinyin":"nanzidao","zip":"101310230"},
{"name":"Wakayama_Prefecture","pinyin":"nanzidao","zip":"101310230"},
{"name":"Heraklion","pinyin":"nanzidao","zip":"101310230"},
{"name":"Yokohama-shi","pinyin":"nanzidao","zip":"101310230"},
{"name":"Ho_Chi_Minh_City","pinyin":"nanzidao","zip":"101310230"},
{"name":"Hualien","pinyin":"nanzidao","zip":"101310230"},
{"name":"Bourg-la-Reine","pinyin":"nanzidao","zip":"101310230"},
{"name":"Gold_Coast","pinyin":"nanzidao","zip":"101310230"},
{"name":"Whistler","pinyin":"nanzidao","zip":"101310230"},
{"name":"Hobart","pinyin":"nanzidao","zip":"101310230"},
{"name":"Christchurch","pinyin":"nanzidao","zip":"101310230"},
{"name":"Keelung_City","pinyin":"nanzidao","zip":"101310230"},
{"name":"Kiruna","pinyin":"nanzidao","zip":"101310230"},
{"name":"Key_West","pinyin":"nanzidao","zip":"101310230"},
{"name":"Jeddah","pinyin":"nanzidao","zip":"101310230"},
{"name":"Cardiff","pinyin":"nanzidao","zip":"101310230"},
{"name":"Kolkata","pinyin":"nanzidao","zip":"101310230"},
{"name":"Garmisch-Partenkirchen","pinyin":"nanzidao","zip":"101310230"},
{"name":"Chiayi","pinyin":"nanzidao","zip":"101310230"},
{"name":"Cannes","pinyin":"nanzidao","zip":"101310230"},
{"name":"Krabi","pinyin":"nanzidao","zip":"101310230"},
{"name":"Jasper","pinyin":"nanzidao","zip":"101310230"},
{"name":"Chanthaburi","pinyin":"nanzidao","zip":"101310230"},
{"name":"Cambridge","pinyin":"nanzidao","zip":"101310230"},
{"name":"Kangwon-Do","pinyin":"nanzidao","zip":"101310230"},
{"name":"Jackson","pinyin":"nanzidao","zip":"101310230"},
{"name":"Cameron_Highlands","pinyin":"nanzidao","zip":"101310230"},
{"name":"Kinmen_County","pinyin":"nanzidao","zip":"101310230"},
{"name":"Kanazawa-shi","pinyin":"nanzidao","zip":"101310230"},
{"name":"Shizuoka_Prefecture","pinyin":"nanzidao","zip":"101310230"},
{"name":"Karlsruhe","pinyin":"nanzidao","zip":"101310230"},
{"name":"Kalibo","pinyin":"nanzidao","zip":"101310230"},
{"name":"Camarillo","pinyin":"nanzidao","zip":"101310230"},
{"name":"Carmel-by-the-Sea","pinyin":"nanzidao","zip":"101310230"},
{"name":"Kassel","pinyin":"nanzidao","zip":"101310230"},
{"name":"Cape_Town","pinyin":"nanzidao","zip":"101310230"},
{"name":"Cairns","pinyin":"nanzidao","zip":"101310230"},
{"name":"Kaikoura","pinyin":"nanzidao","zip":"101310230"},
{"name":"Port_Campbell","pinyin":"nanzidao","zip":"101310230"},
{"name":"Cancun","pinyin":"nanzidao","zip":"101310230"},
{"name":"Kola","pinyin":"nanzidao","zip":"101310230"},
{"name":"Coventry","pinyin":"nanzidao","zip":"101310230"},
{"name":"Koblenz","pinyin":"nanzidao","zip":"101310230"},
{"name":"Cordoba","pinyin":"nanzidao","zip":"101310230"},
{"name":"Colchester","pinyin":"nanzidao","zip":"101310230"},
{"name":"Cologne","pinyin":"nanzidao","zip":"101310230"},
{"name":"Corvallis","pinyin":"nanzidao","zip":"101310230"},
{"name":"Chur","pinyin":"nanzidao","zip":"101310230"},
{"name":"Mount_Cook","pinyin":"nanzidao","zip":"101310230"},
{"name":"Quebec","pinyin":"nanzidao","zip":"101310230"},
{"name":"Leipzig","pinyin":"nanzidao","zip":"101310230"},
{"name":"Leicester","pinyin":"nanzidao","zip":"101310230"},
{"name":"Lancaster","pinyin":"nanzidao","zip":"101310230"},
{"name":"Rancho_Mirage","pinyin":"nanzidao","zip":"101310230"},
{"name":"Reims","pinyin":"nanzidao","zip":"101310230"},
{"name":"Louangphabang","pinyin":"nanzidao","zip":"101310230"},
{"name":"Launceston","pinyin":"nanzidao","zip":"101310230"},
{"name":"Fort_Lauderdale","pinyin":"nanzidao","zip":"101310230"},
{"name":"Reykjavik","pinyin":"nanzidao","zip":"101310230"},
{"name":"Liverpool","pinyin":"nanzidao","zip":"101310230"},
{"name":"Leeds","pinyin":"nanzidao","zip":"101310230"},
{"name":"Lincoln","pinyin":"nanzidao","zip":"101310230"},
{"name":"Linkoping","pinyin":"nanzidao","zip":"101310230"},
{"name":"Yongin","pinyin":"nanzidao","zip":"101310230"},
{"name":"Lund","pinyin":"nanzidao","zip":"101310230"},
{"name":"Lugano","pinyin":"nanzidao","zip":"101310230"},
{"name":"Leuven","pinyin":"nanzidao","zip":"101310230"},
{"name":"Kagoshima_Prefecture","pinyin":"nanzidao","zip":"101310230"},
{"name":"Ludwigsburg","pinyin":"nanzidao","zip":"101310230"},
{"name":"Louisville","pinyin":"nanzidao","zip":"101310230"},
{"name":"London","pinyin":"nanzidao","zip":"101310230"},
{"name":"Rowland_Heights","pinyin":"nanzidao","zip":"101310230"},
{"name":"Rochester","pinyin":"nanzidao","zip":"101310230"},
{"name":"Rothenburg_ob_der_Tauber","pinyin":"nanzidao","zip":"101310230"},
{"name":"Rayong","pinyin":"nanzidao","zip":"101310230"},
{"name":"Lorne","pinyin":"nanzidao","zip":"101310230"},
{"name":"Mahe_Island","pinyin":"nanzidao","zip":"101310230"},
{"name":"Malmo","pinyin":"nanzidao","zip":"101310230"},
{"name":"Malaga","pinyin":"nanzidao","zip":"101310230"},
{"name":"Melaka","pinyin":"nanzidao","zip":"101310230"},
{"name":"Maastricht","pinyin":"nanzidao","zip":"101310230"},
{"name":"Miami","pinyin":"nanzidao","zip":"101310230"},
{"name":"Miami_Beach","pinyin":"nanzidao","zip":"101310230"},
{"name":"Madison","pinyin":"nanzidao","zip":"101310230"},
{"name":"Manchester","pinyin":"nanzidao","zip":"101310230"},
{"name":"Mannheim","pinyin":"nanzidao","zip":"101310230"},
{"name":"Mestre","pinyin":"nanzidao","zip":"101310230"},
{"name":"Mae_Rim","pinyin":"nanzidao","zip":"101310230"},
{"name":"Mina","pinyin":"nanzidao","zip":"101310230"},
{"name":"Mainz","pinyin":"nanzidao","zip":"101310230"},
{"name":"Monte-Carlo","pinyin":"nanzidao","zip":"101310230"},
{"name":"Montreux","pinyin":"nanzidao","zip":"101310230"},
{"name":"Monterey","pinyin":"nanzidao","zip":"101310230"},
{"name":"Mykonos","pinyin":"nanzidao","zip":"101310230"},
{"name":"Medan","pinyin":"nanzidao","zip":"101310230"},
{"name":"Miaoli_City","pinyin":"nanzidao","zip":"101310230"},
{"name":"Modena","pinyin":"nanzidao","zip":"101310230"},
{"name":"Munich","pinyin":"nanzidao","zip":"101310230"},
{"name":"Naples","pinyin":"nanzidao","zip":"101310230"},
{"name":"Chory","pinyin":"nanzidao","zip":"101310230"},
{"name":"Napa","pinyin":"nanzidao","zip":"101310230"},
{"name":"Canton_of_Neuchatel","pinyin":"nanzidao","zip":"101310230"},
{"name":"Nashville","pinyin":"nanzidao","zip":"101310230"},
{"name":"Nara-shi","pinyin":"nanzidao","zip":"101310230"},
{"name":"Southampton","pinyin":"nanzidao","zip":"101310230"},
{"name":"South_San_Francisco","pinyin":"nanzidao","zip":"101310230"},
{"name":"Nantou_City","pinyin":"nanzidao","zip":"101310230"},
{"name":"Nadi","pinyin":"nanzidao","zip":"101310230"},
{"name":"Niagara","pinyin":"nanzidao","zip":"101310230"},
{"name":"Oxford","pinyin":"nanzidao","zip":"101310230"},
{"name":"New_Haven","pinyin":"nanzidao","zip":"101310230"},
{"name":"Nuremberg","pinyin":"nanzidao","zip":"101310230"},
{"name":"Newark","pinyin":"nanzidao","zip":"101310230"},
{"name":"Nottingham","pinyin":"nanzidao","zip":"101310230"},
{"name":"Norwich","pinyin":"nanzidao","zip":"101310230"},
{"name":"Aubagne_en_Provence","pinyin":"nanzidao","zip":"101310230"},
{"name":"Owen","pinyin":"nanzidao","zip":"101310230"},
{"name":"Ko_Phangan","pinyin":"nanzidao","zip":"101310230"},
{"name":"Palo_Alto","pinyin":"nanzidao","zip":"101310230"},
{"name":"Pasadena","pinyin":"nanzidao","zip":"101310230"},
{"name":"Page","pinyin":"nanzidao","zip":"101310230"},
{"name":"Penghu_County","pinyin":"nanzidao","zip":"101310230"},
{"name":"Pingtung_City","pinyin":"nanzidao","zip":"101310230"},
{"name":"Portsmouth","pinyin":"nanzidao","zip":"101310230"},
{"name":"Preston","pinyin":"nanzidao","zip":"101310230"},
{"name":"Plymouth","pinyin":"nanzidao","zip":"101310230"},
{"name":"Provence","pinyin":"nanzidao","zip":"101310230"},
{"name":"Chitose-shi","pinyin":"nanzidao","zip":"101310230"},
{"name":"Chiba_Prefecture","pinyin":"nanzidao","zip":"101310230"},
{"name":"Aomori_Prefecture","pinyin":"nanzidao","zip":"101310230"},
{"name":"Karuizawa-machi","pinyin":"nanzidao","zip":"101310230"},
{"name":"Chiang_Rai","pinyin":"nanzidao","zip":"101310230"},
{"name":"Gyeongju","pinyin":"nanzidao","zip":"101310230"},
{"name":"Atami-shi","pinyin":"nanzidao","zip":"101310230"},
{"name":"Yogyakarta","pinyin":"nanzidao","zip":"101310230"},
{"name":"Zaragoza","pinyin":"nanzidao","zip":"101310230"},
{"name":"Salamanca","pinyin":"nanzidao","zip":"101310230"},
{"name":"Saipan","pinyin":"nanzidao","zip":"101310230"},
{"name":"Cergy","pinyin":"nanzidao","zip":"101310230"},
{"name":"Seville","pinyin":"nanzidao","zip":"101310230"},
{"name":"Semarang","pinyin":"nanzidao","zip":"101310230"},
{"name":"Sunnyvale","pinyin":"nanzidao","zip":"101310230"},
{"name":"Sharjah","pinyin":"nanzidao","zip":"101310230"},
{"name":"Samet","pinyin":"nanzidao","zip":"101310230"},
{"name":"Sandakan","pinyin":"nanzidao","zip":"101310230"},
{"name":"Mountain_View","pinyin":"nanzidao","zip":"101310230"},
{"name":"Kanagawa_Prefecture","pinyin":"nanzidao","zip":"101310230"},
{"name":"Santa_Barbara","pinyin":"nanzidao","zip":"101310230"},
{"name":"St.Petersburg","pinyin":"nanzidao","zip":"101310230"},
{"name":"San_Juan","pinyin":"nanzidao","zip":"101310230"},
{"name":"San_Gabriel","pinyin":"nanzidao","zip":"101310230"},
{"name":"Santa_Clara","pinyin":"nanzidao","zip":"101310230"},
{"name":"Sankt_Moritz-Dorf","pinyin":"nanzidao","zip":"101310230"},
{"name":"Santa_Monica","pinyin":"nanzidao","zip":"101310230"},
{"name":"San_Sebastian","pinyin":"nanzidao","zip":"101310230"},
{"name":"San_Simeon","pinyin":"nanzidao","zip":"101310230"},
{"name":"Suwon","pinyin":"nanzidao","zip":"101310230"},
{"name":"Stratford-upon-Avon","pinyin":"nanzidao","zip":"101310230"},
{"name":"Strasbourg","pinyin":"nanzidao","zip":"101310230"},
{"name":"Stuttgart","pinyin":"nanzidao","zip":"101310230"},
{"name":"Surabaya","pinyin":"nanzidao","zip":"101310230"},
{"name":"Ko_Samui","pinyin":"nanzidao","zip":"101310230"},
{"name":"Sukhothai","pinyin":"nanzidao","zip":"101310230"},
{"name":"Solvang","pinyin":"nanzidao","zip":"101310230"},
{"name":"Taipei_City","pinyin":"nanzidao","zip":"101310230"},
{"name":"Taitung_City","pinyin":"nanzidao","zip":"101310230"},
{"name":"Tainan_City","pinyin":"nanzidao","zip":"101310230"},
{"name":"Taichung_City","pinyin":"nanzidao","zip":"101310230"},
{"name":"Newcastle_upon_Tyne","pinyin":"nanzidao","zip":"101310230"},
{"name":"Tampa","pinyin":"nanzidao","zip":"101310230"},
{"name":"Tempe","pinyin":"nanzidao","zip":"101310230"},
{"name":"Taoyuan_City","pinyin":"nanzidao","zip":"101310230"},
{"name":"Lake_Tekapo","pinyin":"nanzidao","zip":"101310230"},
{"name":"Trier","pinyin":"nanzidao","zip":"101310230"},
{"name":"Tromso","pinyin":"nanzidao","zip":"101310230"},
{"name":"Vung_Tau","pinyin":"nanzidao","zip":"101310230"},
{"name":"Tusa","pinyin":"nanzidao","zip":"101310230"},
{"name":"Tucson","pinyin":"nanzidao","zip":"101310230"},
{"name":"Toledo","pinyin":"nanzidao","zip":"101310230"},
{"name":"Lake_Wanaka","pinyin":"nanzidao","zip":"101310230"},
{"name":"Bandung","pinyin":"nanzidao","zip":"101310230"},
{"name":"Wanrong_Township","pinyin":"nanzidao","zip":"101310230"},
{"name":"Williams","pinyin":"nanzidao","zip":"101310230"},
{"name":"Wiesbaden","pinyin":"nanzidao","zip":"101310230"},
{"name":"Victoria","pinyin":"nanzidao","zip":"101310230"},
{"name":"Wuerzburg","pinyin":"nanzidao","zip":"101310230"},
{"name":"Verona","pinyin":"nanzidao","zip":"101310230"},
{"name":"Windermere","pinyin":"nanzidao","zip":"101310230"},
{"name":"Windsor","pinyin":"nanzidao","zip":"101310230"},
{"name":"Wolfsburg","pinyin":"nanzidao","zip":"101310230"},
{"name":"Utrecht","pinyin":"nanzidao","zip":"101310230"},
{"name":"Wuppertal","pinyin":"nanzidao","zip":"101310230"},
{"name":"West_Yellowstone","pinyin":"nanzidao","zip":"101310230"},
{"name":"Syracuse","pinyin":"nanzidao","zip":"101310230"},
{"name":"Siena","pinyin":"nanzidao","zip":"101310230"},
{"name":"Halong_Bay","pinyin":"nanzidao","zip":"101310230"},
{"name":"Maui","pinyin":"nanzidao","zip":"101310230"},
{"name":"Semporna","pinyin":"nanzidao","zip":"101310230"},
{"name":"Sendai-shi","pinyin":"nanzidao","zip":"101310230"},
{"name":"Hakone-machi","pinyin":"nanzidao","zip":"101310230"},
{"name":"Otaru-shi","pinyin":"nanzidao","zip":"101310230"},
{"name":"Sheffield","pinyin":"nanzidao","zip":"101310230"},
{"name":"New_Taipei_City","pinyin":"nanzidao","zip":"101310230"},
{"name":"Hsinchu_City","pinyin":"nanzidao","zip":"101310230"},
{"name":"Kumamoto_Prefecture","pinyin":"nanzidao","zip":"101310230"},
{"name":"Asahikawa-shi","pinyin":"nanzidao","zip":"101310230"},
{"name":"Inferior","pinyin":"nanzidao","zip":"101310230"},
{"name":"Asuncion","pinyin":"nanzidao","zip":"101310230"},
{"name":"Avignon","pinyin":"nanzidao","zip":"101310230"},
{"name":"Salt_Lake_City","pinyin":"nanzidao","zip":"101310230"},
{"name":"Ito-shi","pinyin":"nanzidao","zip":"101310230"},
{"name":"Izu-shi","pinyin":"nanzidao","zip":"101310230"},
{"name":"Irkutsk","pinyin":"nanzidao","zip":"101310230"},
{"name":"Ilan_City","pinyin":"nanzidao","zip":"101310230"},
{"name":"Ipoh","pinyin":"nanzidao","zip":"101310230"},
{"name":"Interlaken","pinyin":"nanzidao","zip":"101310230"},
{"name":"Eugene","pinyin":"nanzidao","zip":"101310230"},
{"name":"Yorkshire","pinyin":"nanzidao","zip":"101310230"},
{"name":"Genting_Highlands","pinyin":"nanzidao","zip":"101310230"},
{"name":"Jersey_City","pinyin":"nanzidao","zip":"101310230"},
{"name":"Sapporo-shi","pinyin":"nanzidao","zip":"101310230"},
{"name":"Changhua_City","pinyin":"nanzidao","zip":"101310230"},
{"name":"Palm_Springs","pinyin":"nanzidao","zip":"101310230"}]